GLOBALSTAR M001 [-]     
1 25162U 98008A   24053.42524622 -.00000116  00000+0 -14594-3 0  9997
2 25162  52.0037 292.4837 0001503 352.8199 178.7577 12.38177317184157
GLOBALSTAR M002 [-]     
1 25164U 98008C   24053.53282832 -.00000059  00000+0  34184-3 0  9997
2 25164  52.0052   5.3539 0001500 355.1978   4.8828 11.61498092128218
GLOBALSTAR M003 [-]     
1 25165U 98008D   24053.32281883  .00000057  00000+0  15637-2 0  9998
2 25165  51.9825  60.3655 0008061  47.5413 325.1131 12.11979684174911
GLOBALSTAR M014 [-]     
1 25306U 98023A   24053.43976177 -.00000039  00000+0  72373-3 0  9993
2 25306  51.9844 298.9218 0000684 135.9976  34.4401 11.65464971135117
GLOBALSTAR M006 [-]     
1 25307U 98023B   24053.51817182 -.00000058  00000+0  35285-3 0  9995
2 25307  51.9972 333.2306 0003818 333.6978 197.1248 11.58156561161134
GLOBALSTAR M015 [-]     
1 25308U 98023C   24053.45548125 -.00000123  00000+0 -11294-2 0  9994
2 25308  51.9833  49.8220 0012393 299.6530 229.5992 11.48855499138820
GLOBALSTAR M008 [-]     
1 25309U 98023D   24053.58540940 -.00000100  00000+0 -29193-4 0  9990
2 25309  51.9960 151.4024 0002212 225.2739 238.2454 12.36036407178416
